{
  "type": "FeatureCollection",
  "features": [
    {
      "type": "Feature",
      "properties": {
        "norad_id": 34790,
        "name": "COSMOS 2251 DEB",
        "group": "cosmos-2251-debris",
        "lat": -72.23504431755441,
        "lon": 155.7885800303761,
        "alt_km": 744.3160005932068,
        "timestamp": "2025-12-26T11:25:45.585621+00:00",
        "meta_object_name": "COSMOS 2251 DEB",
        "meta_object_id": "1993-036AAT",
        "meta_epoch": "2025-12-25T15:51:16.162272",
        "meta_mean_motion": 14.24671167,
        "meta_eccentricity": 0.0100473,
        "meta_inclination": 74.0524,
        "meta_ra_of_asc_node": 220.442,
        "meta_arg_of_pericenter": 279.3563,
        "meta_mean_anomaly": 137.0748,
        "meta_ephemeris_type": 0,
        "meta_classification_type": "U",
        "meta_norad_cat_id": 34790,
        "meta_element_set_no": 999,
        "meta_rev_at_epoch": 86757,
        "meta_bstar": 0.00054898,
        "meta_mean_motion_dot": 1.32e-05,
        "meta_mean_motion_ddot": 0,
        "tle_line1": "1 34790U 93036AAT 25359.66060373  .00001320  00000+0  54898-3 0  9991",
        "tle_line2": "2 34790  74.0524 220.4420 0100473 279.3563 137.0748 14.24671167867573"
      },
      "geometry": {
        "type": "Point",
        "coordinates": [
          155.7885800303761,
          -72.23504431755441
        ]
      }
    },
    {
      "type": "Feature",
      "properties": {
        "norad_id": 34792,
        "name": "COSMOS 2251 DEB",
        "group": "cosmos-2251-debris",
        "lat": -23.590913705353785,
        "lon": 136.4469465118087,
        "alt_km": 712.0762869632899,
        "timestamp": "2025-12-26T11:25:45.585630+00:00",
        "meta_object_name": "COSMOS 2251 DEB",
        "meta_object_id": "1993-036AAV",
        "meta_epoch": "2025-12-25T14:40:51.402720",
        "meta_mean_motion": 14.56064533,
        "meta_eccentricity": 0.0012383,
        "meta_inclination": 74.018,
        "meta_ra_of_asc_node": 145.2771,
        "meta_arg_of_pericenter": 240.3176,
        "meta_mean_anomaly": 245.2413,
        "meta_ephemeris_type": 0,
        "meta_classification_type": "U",
        "meta_norad_cat_id": 34792,
        "meta_element_set_no": 999,
        "meta_rev_at_epoch": 87837,
        "meta_bstar": 0.0012128,
        "meta_mean_motion_dot": 5.325e-05,
        "meta_mean_motion_ddot": 0,
        "tle_line1": "1 34792U 93036AAV 25359.61170605  .00005325  00000+0  12128-2 0  9996",
        "tle_line2": "2 34792  74.0180 145.2771 0012383 240.3176 245.2413 14.56064533878375"
      },
      "geometry": {
        "type": "Point",
        "coordinates": [
          136.4469465118087,
          -23.590913705353785
        ]
      }
    },
    {
      "type": "Feature",
      "properties": {
        "norad_id": 34793,
        "name": "COSMOS 2251 DEB",
        "group": "cosmos-2251-debris",
        "lat": -22.92125631880751,
        "lon": -141.97843424963204,
        "alt_km": 739.839341517024,
        "timestamp": "2025-12-26T11:25:45.585639+00:00",
        "meta_object_name": "COSMOS 2251 DEB",
        "meta_object_id": "1993-036AAW",
        "meta_epoch": "2025-12-25T19:24:04.961664",
        "meta_mean_motion": 14.38664126,
        "meta_eccentricity": 0.00508769,
        "meta_inclination": 74.0015,
        "meta_ra_of_asc_node": 226.2232,
        "meta_arg_of_pericenter": 17.0479,
        "meta_mean_anomaly": 102.0932,
        "meta_ephemeris_type": 0,
        "meta_classification_type": "U",
        "meta_norad_cat_id": 34793,
        "meta_element_set_no": 999,
        "meta_rev_at_epoch": 87518,
        "meta_bstar": 0.00021915048,
        "meta_mean_motion_dot": 6.55e-06,
        "meta_mean_motion_ddot": 0,
        "tle_line1": "1 34793U 93036AAW 25359.80839076  .00000655  00000+0  21915-3 0  9998",
        "tle_line2": "2 34793  74.0015 226.2232 0050876  17.0479 102.0932 14.38664126875185"
      },
      "geometry": {
        "type": "Point",
        "coordinates": [
          -141.97843424963204,
          -22.92125631880751
        ]
      }
    },
    {
      "type": "Feature",
      "properties": {
        "norad_id": 34796,
        "name": "COSMOS 2251 DEB",
        "group": "cosmos-2251-debris",
        "lat": -25.701932798348487,
        "lon": 18.5128255562995,
        "alt_km": 725.5734602255616,
        "timestamp": "2025-12-26T11:25:45.585648+00:00",
        "meta_object_name": "COSMOS 2251 DEB",
        "meta_object_id": "1993-036AAZ",
        "meta_epoch": "2025-12-25T13:03:59.133024",
        "meta_mean_motion": 14.48745914,
        "meta_eccentricity": 0.0100284,
        "meta_inclination": 74.0282,
        "meta_ra_of_asc_node": 192.3362,
        "meta_arg_of_pericenter": 291.6358,
        "meta_mean_anomaly": 98.4563,
        "meta_ephemeris_type": 0,
        "meta_classification_type": "U",
        "meta_norad_cat_id": 34796,
        "meta_element_set_no": 999,
        "meta_rev_at_epoch": 88213,
        "meta_bstar": 0.00055203,
        "meta_mean_motion_dot": 2.189e-05,
        "meta_mean_motion_ddot": 0,
        "tle_line1": "1 34796U 93036AAZ 25359.54443441  .00002189  00000+0  55203-3 0  9990",
        "tle_line2": "2 34796  74.0282 192.3362 0100284 291.6358  98.4563 14.48745914882133"
      },
      "geometry": {
        "type": "Point",
        "coordinates": [
          18.5128255562995,
          -25.701932798348487
        ]
      }
    },
    {
      "type": "Feature",
      "properties": {
        "norad_id": 34797,
        "name": "COSMOS 2251 DEB",
        "group": "cosmos-2251-debris",
        "lat": 41.68702401880469,
        "lon": 89.21917625178901,
        "alt_km": 784.3476193837832,
        "timestamp": "2025-12-26T11:25:45.585658+00:00",
        "meta_object_name": "COSMOS 2251 DEB",
        "meta_object_id": "1993-036ABA",
        "meta_epoch": "2025-12-22T12:22:54.757056",
        "meta_mean_motion": 14.42950692,
        "meta_eccentricity": 0.00710542,
        "meta_inclination": 73.9783,
        "meta_ra_of_asc_node": 81.7691,
        "meta_arg_of_pericenter": 193.6898,
        "meta_mean_anomaly": 166.2334,
        "meta_ephemeris_type": 0,
        "meta_classification_type": "U",
        "meta_norad_cat_id": 34797,
        "meta_element_set_no": 999,
        "meta_rev_at_epoch": 87556,
        "meta_bstar": 0.0021692417,
        "meta_mean_motion_dot": 7.461e-05,
        "meta_mean_motion_ddot": 0,
        "tle_line1": "1 34797U 93036ABA 25356.51591154  .00007461  00000+0  21692-2 0  9992",
        "tle_line2": "2 34797  73.9783  81.7691 0071054 193.6898 166.2334 14.42950692875560"
      },
      "geometry": {
        "type": "Point",
        "coordinates": [
          89.21917625178901,
          41.68702401880469
        ]
      }
    },
    {
      "type": "Feature",
      "properties": {
        "norad_id": 34814,
        "name": "COSMOS 2251 DEB",
        "group": "cosmos-2251-debris",
        "lat": 73.8527699445506,
        "lon": 33.75925249985756,
        "alt_km": 764.8130165383473,
        "timestamp": "2025-12-26T11:25:45.585667+00:00",
        "meta_object_name": "COSMOS 2251 DEB",
        "meta_object_id": "1993-036ABD",
        "meta_epoch": "2025-12-23T04:46:16.254336",
        "meta_mean_motion": 14.3693492,
        "meta_eccentricity": 0.00554769,
        "meta_inclination": 73.8962,
        "meta_ra_of_asc_node": 306.0405,
        "meta_arg_of_pericenter": 193.3771,
        "meta_mean_anomaly": 230.9861,
        "meta_ephemeris_type": 0,
        "meta_classification_type": "U",
        "meta_norad_cat_id": 34814,
        "meta_element_set_no": 999,
        "meta_rev_at_epoch": 87483,
        "meta_bstar": 0.00068608274,
        "meta_mean_motion_dot": 2.041e-05,
        "meta_mean_motion_ddot": 0,
        "tle_line1": "1 34814U 93036ABD 25357.19879924  .00002041  00000+0  68608-3 0  9999",
        "tle_line2": "2 34814  73.8962 306.0405 0055476 193.3771 230.9861 14.36934920874833"
      },
      "geometry": {
        "type": "Point",
        "coordinates": [
          33.75925249985756,
          73.8527699445506
        ]
      }
    },
    {
      "type": "Feature",
      "properties": {
        "norad_id": 34815,
        "name": "COSMOS 2251 DEB",
        "group": "cosmos-2251-debris",
        "lat": 42.70897564753567,
        "lon": 19.51299926491435,
        "alt_km": 664.3638904702348,
        "timestamp": "2025-12-26T11:25:45.585676+00:00",
        "meta_object_name": "COSMOS 2251 DEB",
        "meta_object_id": "1993-036ABE",
        "meta_epoch": "2025-12-26T01:04:19.229664",
        "meta_mean_motion": 14.78457194,
        "meta_eccentricity": 0.0058677,
        "meta_inclination": 74.044,
        "meta_ra_of_asc_node": 215.6734,
        "meta_arg_of_pericenter": 281.9986,
        "meta_mean_anomaly": 77.4616,
        "meta_ephemeris_type": 0,
        "meta_classification_type": "U",
        "meta_norad_cat_id": 34815,
        "meta_element_set_no": 999,
        "meta_rev_at_epoch": 88824,
        "meta_bstar": 0.00072446,
        "meta_mean_motion_dot": 5.407e-05,
        "meta_mean_motion_ddot": 0,
        "tle_line1": "1 34815U 93036ABE 25360.04466701  .00005407  00000+0  72446-3 0  9997",
        "tle_line2": "2 34815  74.0440 215.6734 0058677 281.9986  77.4616 14.78457194888247"
      },
      "geometry": {
        "type": "Point",
        "coordinates": [
          19.51299926491435,
          42.70897564753567
        ]
      }
    }
  ]
}